OBJECT_NAME,OBJECT_ID,EPOCH,MEAN_MOTION,ECCENTRICITY,INCLINATION,RA_OF_ASC_NODE,ARG_OF_PERICENTER,MEAN_ANOMALY,EPHEMERIS_TYPE,CLASSIFICATION_TYPE,NORAD_CAT_ID,ELEMENT_SET_NO,REV_AT_EPOCH,BSTAR,MEAN_MOTION_DOT,MEAN_MOTION_DDOT
ASNARO-2,2018-007A,2026-06-17T13:55:48.992160,15.22399363,.00019421,97.3968,175.5016,91.3541,268.7918,0,U,43152,999,46747,.31917018E-3,.7306E-4,0
JILIN-1 07,2018-008E,2026-06-17T13:11:05.696736,15.34727956,.00098766,97.1765,188.4683,64.3061,295.9201,0,U,43159,999,46505,.21908123E-3,.7308E-4,0
JILIN-1 08,2018-008F,2026-06-17T13:11:46.300416,15.33715996,.00080075,97.1799,187.7848,79.2685,280.9459,0,U,43160,999,46500,.14552476E-3,.4672E-4,0
S-NET D,2018-014G,2026-06-17T12:40:06.737664,15.16676161,.00089119,97.5361,73.3166,29.5505,330.6230,0,U,43186,999,45881,.20301562E-3,.391E-4,0
S-NET B,2018-014H,2026-06-17T06:36:35.331552,15.16643884,.00094068,97.5368,73.0524,25.1110,335.0578,0,U,43187,999,45877,.2175341E-3,.4191E-4,0
S-NET A,2018-014J,2026-06-16T19:13:26.734368,15.16678733,.00093645,97.5381,72.7895,27.3118,332.8605,0,U,43188,999,45870,.21924859E-3,.4229E-4,0
S-NET C,2018-014K,2026-06-17T09:52:11.125632,15.16636851,.00104268,97.5396,73.4708,17.0122,343.1458,0,U,43189,999,45734,.22139725E-3,.4267E-4,0
PAZ,2018-020A,2026-06-17T13:38:02.721984,15.19154109,.00016522,97.4453,175.9485,85.9124,274.2299,0,U,43215,999,46106,.73044207E-4,.1467E-4,0
GOES 17,2018-022A,2026-06-16T22:51:18.123840,1.00269717,.00004239,0.9372,85.7144,32.6375,40.1765,0,U,43226,999,3042,0,-.186E-5,0
LKW-4,2018-025A,2026-06-17T11:07:37.329600,15.62290430,.00019176,97.6345,339.3580,287.7407,72.3641,0,U,43236,999,46007,.40134971E-3,.35371E-3,0
ZHUHAI-1 OVS-02,2018-040B,2026-06-17T15:00:17.407872,15.25029684,.0001774,97.0383,185.8289,232.0179,128.0900,0,U,43440,999,45278,.21978217E-3,.5423E-4,0
ZHUHAI-1 OHS-02,2018-040C,2026-06-17T14:38:27.837024,15.25886431,.00081212,97.0365,192.7546,218.1159,141.9507,0,U,43441,999,11434,.25397147E-3,.6447E-4,0
GAOFEN-6,2018-048A,2026-06-17T14:43:05.662272,14.76611755,.0012414,97.9301,231.3603,165.8712,194.2847,0,U,43484,999,43345,.11668E-3,.765E-5,0
LUOJIA-1 01,2018-048B,2026-06-17T13:52:11.180352,14.87288740,.00103341,97.8107,246.7591,116.0170,244.2112,0,U,43485,999,43427,.2675589E-3,.2361E-4,0
PAKTES 1A,2018-056A,2026-06-17T14:31:48.684576,14.99107652,.00220982,98.1303,325.1101,104.6819,255.6855,0,U,43529,999,43198,.12045487E-3,.1405E-4,0
PRSS-1,2018-056B,2026-06-17T14:16:45.696576,14.81987947,.00016224,97.7823,236.4533,73.8374,286.3017,0,U,43530,999,42849,.47981845E-4,.33E-5,0
HAIYANG-1C,2018-068A,2026-06-17T14:15:09.530784,14.34180029,.00121376,98.5195,240.8960,93.1635,267.0939,0,U,43609,999,40714,.13597046E-3,.338E-5,0
SSTL S1-4,2018-071A,2026-06-17T14:57:35.122752,14.96179361,.00012949,97.5030,40.2205,100.7452,259.3916,0,U,43618,999,42300,-.6747474E-5,-.13E-5,0
HAIYANG-2B,2018-081A,2026-06-17T14:21:27.847872,13.79306441,.00003932,99.3277,177.3483,4.2615,355.8540,0,U,43655,999,38498,-.31335653E-4,-.76E-6,0
CFOSAT,2018-083A,2026-06-17T14:55:16.083552,15.16376931,.00024391,97.3603,173.1397,90.9771,269.1742,0,U,43662,999,42250,.15006348E-3,.2848E-4,0
TEN-KOH,2018-084G,2026-06-17T12:33:20.609280,15.02944490,.00115609,98.0772,0.9010,113.1889,247.0554,0,U,43677,999,41621,.11978719E-3,.1544E-4,0
DIWATA-2B,2018-084H,2026-06-17T13:40:48.204768,15.00453171,.00124876,98.1177,4.7946,168.8942,191.2559,0,U,43678,999,41627,.15046693E-3,.183E-4,0
STARS-AO,2018-084J,2026-06-17T12:50:48.676704,15.17056004,.00029309,98.0495,22.5278,136.3706,223.7758,0,U,43679,999,41752,.25353881E-3,.4943E-4,0
AUTCUBE 2,2018-084K,2026-06-17T02:20:55.124736,15.10091399,.00100757,98.0709,14.2676,50.0533,310.1579,0,U,43681,999,41691,.16492352E-3,.2617E-4,0
METOP-C,2018-087A,2026-06-17T13:27:29.572416,14.21512241,.00017804,98.6645,228.1576,128.9759,231.1578,0,U,43689,999,39488,.59594073E-4,.87E-6,0
ES'HAIL 2,2018-090A,2026-06-16T18:16:15.450816,1.00270422,.00016087,0.0175,13.0563,111.1044,80.7103,0,U,43700,999,2767,0,.141E-5,0
MOHAMMED VI-B,2018-095A,2026-06-17T13:59:58.384032,14.77119746,.00013496,97.9561,240.9032,96.8094,263.3270,0,U,43717,999,40824,.1322789E-3,.884E-5,0
HYSIS,2018-096A,2026-06-16T09:35:06.552096,14.78693317,.0001924,97.9845,234.1538,106.8178,253.3244,0,U,43719,999,40730,.79264296E-4,.529E-5,0
COSMOS 2530 (RODNIK-S 16),2018-097A,2026-06-17T14:50:15.061632,12.42881134,.00201846,82.5137,222.0132,38.7620,321.4904,0,U,43751,999,34234,-.1333023E-3,-.8E-7,0
