ASNARO-2                
1 43152U 18007A   26168.58042815  .00007306  00000+0  31917-3 0  9996
2 43152  97.3968 175.5016 0001942  91.3541 268.7918 15.22399363467475
JILIN-1 07              
1 43159U 18008E   26168.54937149  .00007308  00000+0  21908-3 0  9994
2 43159  97.1765 188.4683 0009876  64.3061 295.9201 15.34727956465054
JILIN-1 08              
1 43160U 18008F   26168.54984144  .00004672  00000+0  14552-3 0  9991
2 43160  97.1799 187.7848 0008007  79.2685 280.9459 15.33715996465004
S-NET D                 
1 43186U 18014G   26168.52785576  .00003910  00000+0  20302-3 0  9996
2 43186  97.5361  73.3166 0008911  29.5505 330.6230 15.16676161458819
S-NET B                 
1 43187U 18014H   26168.27540893  .00004191  00000+0  21753-3 0  9993
2 43187  97.5368  73.0524 0009406  25.1110 335.0578 15.16643884458771
S-NET A                 
1 43188U 18014J   26167.80100387  .00004229  00000+0  21925-3 0  9995
2 43188  97.5381  72.7895 0009364  27.3118 332.8605 15.16678733458709
S-NET C                 
1 43189U 18014K   26168.41123988  .00004267  00000+0  22140-3 0  9998
2 43189  97.5396  73.4708 0010426  17.0122 343.1458 15.16636851457344
PAZ                     
1 43215U 18020A   26168.56808706  .00001467  00000+0  73044-4 0  9998
2 43215  97.4453 175.9485 0001652  85.9124 274.2299 15.19154109461069
GOES 17                 
1 43226U 18022A   26167.95229310 -.00000186  00000+0  00000+0 0  9997
2 43226   0.9372  85.7144 0000423  32.6375  40.1765  1.00269717 30429
LKW-4                   
1 43236U 18025A   26168.46362650  .00035371  00000+0  40135-3 0  9993
2 43236  97.6345 339.3580 0001917 287.7407  72.3641 15.62290430460070
ZHUHAI-1 OVS-02         
1 43440U 18040B   26168.62520148  .00005423  00000+0  21978-3 0  9992
2 43440  97.0383 185.8289 0001774 232.0179 128.0900 15.25029684452789
ZHUHAI-1 OHS-02         
1 43441U 18040C   26168.61004441  .00006447  00000+0  25397-3 0  9991
2 43441  97.0365 192.7546 0008121 218.1159 141.9507 15.25886431114344
GAOFEN-6                
1 43484U 18048A   26168.61325998  .00000765  00000+0  11668-3 0  9992
2 43484  97.9301 231.3603 0012414 165.8712 194.2847 14.76611755433451
LUOJIA-1 01             
1 43485U 18048B   26168.57790718  .00002361  00000+0  26756-3 0  9992
2 43485  97.8107 246.7591 0010334 116.0170 244.2112 14.87288740434274
PAKTES 1A               
1 43529U 18056A   26168.60542459  .00001405  00000+0  12045-3 0  9995
2 43529  98.1303 325.1101 0022098 104.6819 255.6855 14.99107652431987
PRSS-1                  
1 43530U 18056B   26168.59497334  .00000330  00000+0  47982-4 0  9991
2 43530  97.7823 236.4533 0001622  73.8374 286.3017 14.81987947428494
HAIYANG-1C              
1 43609U 18068A   26168.59386031  .00000338  00000+0  13597-3 0  9994
2 43609  98.5195 240.8960 0012137  93.1635 267.0939 14.34180029407145
SSTL S1-4               
1 43618U 18071A   26168.62332318 -.00000130  00000+0 -67475-5 0  9999
2 43618  97.5030  40.2205 0001294 100.7452 259.3916 14.96179361423007
HAIYANG-2B              
1 43655U 18081A   26168.59823898 -.00000076  00000+0 -31336-4 0  9990
2 43655  99.3277 177.3483 0000393   4.2615 355.8540 13.79306441384988
CFOSAT                  
1 43662U 18083A   26168.62171393  .00002848  00000+0  15006-3 0  9992
2 43662  97.3603 173.1397 0002439  90.9771 269.1742 15.16376931422509
TEN-KOH                 
1 43677U 18084G   26168.52315520  .00001544  00000+0  11979-3 0  9997
2 43677  98.0772   0.9010 0011560 113.1889 247.0554 15.02944490416215
DIWATA-2B               
1 43678U 18084H   26168.57000237  .00001830  00000+0  15047-3 0  9997
2 43678  98.1177   4.7946 0012487 168.8942 191.2559 15.00453171416272
STARS-AO                
1 43679U 18084J   26168.53528561  .00004943  00000+0  25354-3 0  9999
2 43679  98.0495  22.5278 0002930 136.3706 223.7758 15.17056004417524
AUTCUBE 2               
1 43681U 18084K   26168.09786024  .00002617  00000+0  16492-3 0  9992
2 43681  98.0709  14.2676 0010075  50.0533 310.1579 15.10091399416917
METOP-C                 
1 43689U 18087A   26168.56075894  .00000087  00000+0  59594-4 0  9991
2 43689  98.6645 228.1576 0001780 128.9759 231.1578 14.21512241394880
ES'HAIL 2               
1 43700U 18090A   26167.76128994  .00000141  00000+0  00000+0 0  9994
2 43700   0.0175  13.0563 0001608 111.1044  80.7103  1.00270422 27673
MOHAMMED VI-B           
1 43717U 18095A   26168.58331463  .00000884  00000+0  13228-3 0  9999
2 43717  97.9561 240.9032 0001349  96.8094 263.3270 14.77119746408242
HYSIS                   
1 43719U 18096A   26167.39938139  .00000529  00000+0  79264-4 0  9992
2 43719  97.9845 234.1538 0001924 106.8178 253.3244 14.78693317407307
COSMOS 2530 (RODNIK-S *)
1 43751U 18097A   26168.61822988 -.00000008  00000+0 -13330-3 0  9994
2 43751  82.5137 222.0132 0020184  38.7620 321.4904 12.42881134342344
